#dP2021  1 17  0  0  0.00000000      96 __u+U ITR00 FIT  IAC
## 2141      0.00000000   900.00000000 59231 0.0000000000000
+  117   C01C02C03C04C05C06C07C08C09C10C11C12C13C14C16C19C20
+        C21C22C23C24C25C26C27C28C29C30C32C33C34C35C36C37E01
+        E02E03E04E05E07E08E09E11E12E13E14E15E18E19E21E24E25
+        E26E27E30E31E33E36G01G02G03G04G05G06G07G08G09G10G11
+        G12G13G14G15G16G17G18G19G20G21G22G23G24G25G26G27G28
+        G29G30G31G32J01J02J03J07R01R02R03R04R05R06R07R08R09
+        R10R11R12R13R14R15R16R17R18R19R20R21R22R23R24  0  0
++        14 13 14  0 13  8  9  9 14  8  8  8  9  8  9  8  8
++         8  8  8  8  8  8  8  8  8  8  9  9  8  8  8  9  5
++         5  5  4  4  5  5  4  4  5  5  4  5  5  4  5  4  4
++         5  4  5  4  6  4  4  4  4  4  4  4  4  4  4  3  4
++         4  4  3  4  4  4  4  4  4  4  4  4  4  4  4  4  4
++         4  4  4  4  9  8  9 14  6  6  6  6  6 14  6  6  6
++        13  8  6  7  6  6  6  6  6  7  7  6  7  0  6  0  0
%c M  cc GPS ccc cccc cccc cccc cccc ccccc ccccc ccccc ccccc
%c cc cc ccc ccc cccc cccc cccc cccc ccccc ccccc ccccc ccccc
%f  0.0000000  0.000000000  0.00000000000  0.000000000000000
%f  0.0000000  0.000000000  0.00000000000  0.000000000000000
%i    0    0    0    0      0      0      0      0         0
%i    0    0    0    0      0      0      0      0         0
/* INFORMATION & ANALYSIS CENTER (IAC)            RAPID DATA
/* S/V CLOCKS ARE ALIGNED TO GNSS TIME                      
/* G:C1WC2W R:C1PC2P E:C1XC5X C:C2IC6I J:C1CC2S             
/* PCV:IGS14_2134 OL/AL:FES2004  NONE     YN ORB:CoN CLK:CoN
*  2021 01 17 10  0  0.00000000
PC01 -34348.633783  24506.471864    367.307258   -664.592540
PC02   4388.116422  41879.256742  -1195.917306    587.410466
PC03 -14748.063232  39460.899186  -1132.736840   -513.417381
PC04      0.000000      0.000000      0.000000 999999.999999
PC05  21848.077510  36015.833797  -1384.716313   -569.419057
PC06 -11802.941455  38069.208540 -12616.005357     12.303565
PC07  -9806.060988  24848.632688  32899.205874   -235.407793
PC08 -25138.590438  26881.261644 -20796.702595   -905.058120
PC09  -2381.752838  41750.743774   3235.663747    797.632531
PC10   3603.213095  29533.412973  30220.775879   -102.567821
PC11   9087.830993 -26024.631700  -4127.201963   -892.076038
PC12  15803.262741 -12836.094823 -19033.130359    735.377339
PC13 -10072.463987  27623.034762 -30233.932263    101.512199
PC14   3915.855908 -16943.610215  21835.960277    -77.492010
PC16 -10797.141909  38756.331093 -12192.514011   -662.712537
PC19   5730.329691  21196.889251 -17206.641440    694.024624
PC20 -11440.479127  11039.432905 -22922.102546   -909.643340
PC21  22578.428530   6254.741502  15185.805646   -796.615874
PC22  20028.272268  19403.303701  -1349.772384   -847.505950
PC23 -15997.125684 -10319.384655 -20408.317988   -880.839023
PC24  22169.824137 -13986.826019  -9535.262814   -743.281790
PC25   3310.253260 -17361.585075 -21596.717313   -900.392526
PC26  26745.126861  -3816.042460   6903.397377    961.741750
PC27 -16412.805135   1986.001344  22466.083613    467.835916
PC28  -9376.407880 -17966.989467  19188.444719   -120.711868
PC29  -2091.503325  27432.607855  -4662.763569    339.737272
PC30 -13242.029856  20858.467414  12953.309995    432.371950
PC32 -22623.420955  -6106.537209 -15140.919960   -884.157434
PC33  -5710.477287 -21156.175087  17274.583119   -919.037319
PC34  13052.029984 -21343.020319 -12392.833190   -761.215978
PC35   9893.293941  17869.040185 -18997.809406   -461.675646
PC36  -4102.198076  17329.360828  21506.369374   -775.149897
PC37 -26720.306810   2639.508867  -7637.915924   -860.688032
PE01   6884.850552  16927.976513  23282.567659  -1026.572299
PE02  -7049.045830 -16927.268454 -23243.503497    191.663645
PE03  -7493.507271 -28275.495690   4488.383158   -388.282570
PE04  17715.578666  19553.747349  13412.897992   -690.601970
PE05   7282.864595 -20539.563454  20028.087019   -312.203075
PE07 -17667.043161    893.587078 -23732.699506   -488.788637
PE08 -17833.525984 -19233.836334 -13714.778398   6060.775906
PE09  17490.160827  -1081.776272  23855.140431   5796.267740
PE11  22216.634976 -10712.094508 -16375.225073   6457.258347
PE12  13478.525111   9102.587524 -24722.699494   5402.511637
PE13 -22089.476386  10440.043399  16720.020505    410.413526
PE14  15270.900176 -17034.800104 -20332.763547  -1297.703880
PE15 -13484.166610  -8978.169895  24787.556808    833.861628
PE18  -4311.379230  25429.191416   7454.493804  -1418.322421
PE19   5892.637365  28230.191987  -6660.172775    180.549178
PE21 -14679.508794  12829.759598  22274.528057   -643.323722
PE24  28551.174039   -638.783641  -7735.197220   -694.134267
PE25  14834.829547 -12756.699292 -22203.226788   -524.502277
PE26 -17448.288343  23843.009543  -1831.732437   2255.478440
PE27 -28402.283437   1157.232521   8289.240225     49.347906
PE30 -24851.360766 -11647.576063 -11124.722686   3256.062868
PE31  25337.480848  11130.259248  10494.627953   -477.436397
PE33  -3052.575802  23089.315912 -18251.960130   -464.932995
PE36  17689.491751 -23706.299938   1188.344194    453.104925
PG01 -10485.038608  20015.223856 -13921.110108    778.711761
PG02  21558.482728 -13791.173008  -6457.083084   -566.916395
PG03   -214.536631  15771.525189 -21463.838491    -58.517647
PG04  -2079.776260  25449.511337  -7208.980578   -173.379198
PG05  19545.575115  -5829.280823  16959.771238    -31.217370
PG06  19873.168793   -857.071056 -17560.184365     -4.531019
PG07   4990.180417  15388.225175  21320.422385     24.804640
PG08  -6404.520499  21276.002572  14338.228361     -6.919459
PG09   7291.137325  25163.639601   4227.039674   -313.632419
PG10 -23651.353490 -11886.406937   3643.400602    -41.073077
PG11 -10589.927175  24575.439409   -307.729480    -50.639549
PG12   5121.962504 -14157.628198 -22128.207295     11.774907
PG13  13027.668829 -12515.990272  19291.923345     86.842368
PG14  22127.842892  13780.949863   5098.420313     86.705411
PG15   3944.907571 -22490.414143  12907.376095   -175.751360
PG16 -20616.557963   2279.146711  16620.584249   -266.340780
PG17  13268.269647  13867.151630 -17929.555539    381.324173
PG18  -6795.287446 -13679.797390  21720.075314    341.839192
PG19  14744.045271   5738.160979 -21629.307146    -50.793549
PG20 -16555.401026 -14928.101644  14579.377843    525.127395
PG21 -16405.002981  19827.438392  -4879.384024     87.554291
PG22  -9433.808523  13277.512208 -20758.713590   -696.689988
PG23 -16819.259740 -15818.866278  13134.828693    116.369483
PG24  12989.293671 -21105.647477  -9229.522029      3.573442
PG25 -10091.702113 -17281.851351 -17851.013166     61.503024
PG26 -25511.133380  -3425.954393   7041.349847     31.191701
PG27 -12918.282057   9375.563921  21006.450854    -57.745001
PG28  22765.340204  13344.371013   2462.861883    628.547771
PG29  -4537.607010 -25874.298939   3733.426385   -277.409803
PG30  15269.095156   7389.928601  20529.087157   -370.273602
PG31 -21651.256883   2623.972371 -15549.677071    -94.417155
PG32 -14919.031148 -12337.111170 -18164.737879     14.723862
PJ01 -21683.598329  19411.470680 -25951.357700   -336.806910
PJ02 -30738.456732  22514.248204  22884.516699      0.813835
PJ03 -28261.077417  28148.749921  18920.974278     -0.144754
PJ07 -25379.600759  33670.496910    -59.255234      0.057073
PR01   4217.992847 -11904.190690  22157.684782     73.607424
PR02 -11305.787442 -21467.382169   8011.757802    463.214851
PR03 -17610.944139 -15887.295189  -9422.932942     29.305752
PR04 -13715.687570  -1509.381257 -21433.742024     70.335665
PR05  -2262.505483  13691.178360 -21390.760479     64.893204
PR06  12377.813212  21147.397046  -7053.506429    191.105933
PR07  17625.735296  15394.382298  10125.535580    -42.197393
PR08  13789.644854   1355.415074  21460.893449    -56.895815
PR09   5567.967227  10466.009545  22605.581042     19.048576
PR10  20743.073006   3995.546855  14228.692509    -65.598966
PR11  24828.303750  -4974.117727  -3100.016858      4.459442
PR12  13819.823767 -10671.730624 -18560.615794    197.361887
PR13  -5012.659382 -10291.592663 -22814.544575    -49.442843
PR14 -21352.588755  -3780.417128 -13419.064022     59.944454
PR15 -24815.807050   4788.206210   3499.365147    105.847852
PR16 -12879.683195  11245.115411  18958.324164    -10.297626
PR17  -8257.388371  -7321.084879  23009.689239    391.995180
PR18 -13670.433795   9919.952905  19114.386963     63.447094
PR19 -12680.270607  21396.129628   5678.827828   -128.249720
PR20  -3091.957194  21206.319068 -13785.893645   -431.327339
PR21   8680.049090   6237.356319 -23154.502791   -181.001466
PR22  13849.572748 -11083.908593 -18380.943927    -92.948176
PR23   9467.175686 -23616.692061   1832.410663 999999.999999
PR24   2105.536911 -21039.239924  14283.027098     28.104398
EOF
